{"type": "FeatureCollection", "features": [ {"type": "Feature", "properties": {"norad_id": 34077, "name": "IRIDIUM 33 DEB", "group": "iridium-33-debris", "lat": 9.833494629796707, "lon": -133.17577320381952, "alt_km": 685.1755847341847, "timestamp": "2025-12-21T22:41:41.844251+00:00", "meta": {"OBJECT_NAME": "IRIDIUM 33 DEB", "OBJECT_ID": "1997-051CL", "EPOCH": "2025-12-21T03:59:30.922368", "MEAN_MOTION": 14.64919607, "ECCENTRICITY": 0.00092333, "INCLINATION": 86.385, "RA_OF_ASC_NODE": 47.7954, "ARG_OF_PERICENTER": 12.3417, "MEAN_ANOMALY": 10.5487, "EPHEMERIS_TYPE": 0, "CLASSIFICATION_TYPE": "U", "NORAD_CAT_ID": 34077, "ELEMENT_SET_NO": 999, "REV_AT_EPOCH": 88456, "BSTAR": 0.00074353434, "MEAN_MOTION_DOT": 3.999e-05, "MEAN_MOTION_DDOT": 0}, "tle": {"line1": "1 34077U 97051CL  25355.16633012  .00003999  00000+0  74353-3 0  9999", "line2": "2 34077  86.3850  47.7954 0009233  12.3417  10.5487 14.64919607884567"}}, "geometry": {"type": "Point", "coordinates": [-133.17577320381952, 9.833494629796707]}}, {"type": "Feature", "properties": {"norad_id": 34079, "name": "IRIDIUM 33 DEB", "group": "iridium-33-debris", "lat": 62.2470855931068, "lon": 11.390794442467072, "alt_km": 611.4367804299991, "timestamp": "2025-12-21T22:41:41.844262+00:00", "meta": {"OBJECT_NAME": "IRIDIUM 33 DEB", "OBJECT_ID": "1997-051CN", "EPOCH": "2025-12-21T13:15:26.350848", "MEAN_MOTION": 14.83733705, "ECCENTRICITY": 0.00045701, "INCLINATION": 86.3769, "RA_OF_ASC_NODE": 4.6535, "ARG_OF_PERICENTER": 336.3629, "MEAN_ANOMALY": 147.0439, "EPHEMERIS_TYPE": 0, "CLASSIFICATION_TYPE": "U", "NORAD_CAT_ID": 34079, "ELEMENT_SET_NO": 999, "REV_AT_EPOCH": 89108, "BSTAR": 0.0012935449, "MEAN_MOTION_DOT": 0.00010729, "MEAN_MOTION_DDOT": 0}, "tle": {"line1": "1 34079U 97051CN  25355.55238832  .00010729  00000+0  12935-2 0  9991", "line2": "2 34079  86.3769   4.6535 0004570 336.3629 147.0439 14.83733705891080"}}, "geometry": {"type": "Point", "coordinates": [11.390794442467072, 62.2470855931068]}}, {"type": "Feature", "properties": {"norad_id": 34088, "name": "IRIDIUM 33 DEB", "group": "iridium-33-debris", "lat": 56.423203072303565, "lon": 31.959721137072982, "alt_km": 587.2366373396153, "timestamp": "2025-12-21T22:41:41.844272+00:00", "meta": {"OBJECT_NAME": "IRIDIUM 33 DEB", "OBJECT_ID": "1997-051CX", "EPOCH": "2025-12-21T13:18:54.465984", "MEAN_MOTION": 14.91742218, "ECCENTRICITY": 0.0006689, "INCLINATION": 86.3837, "RA_OF_ASC_NODE": 26.6724, "ARG_OF_PERICENTER": 148.9219, "MEAN_ANOMALY": 330.3576, "EPHEMERIS_TYPE": 0, "CLASSIFICATION_TYPE": "U", "NORAD_CAT_ID": 34088, "ELEMENT_SET_NO": 999, "REV_AT_EPOCH": 88873, "BSTAR": 0.001771542, "MEAN_MOTION_DOT": 0.00017894, "MEAN_MOTION_DDOT": 0}, "tle": {"line1": "1 34088U 97051CX  25355.55479706  .00017894  00000+0  17715-2 0  9999", "line2": "2 34088  86.3837  26.6724 0006689 148.9219 330.3576 14.91742218888730"}}, "geometry": {"type": "Point", "coordinates": [31.959721137072982, 56.423203072303565]}}, {"type": "Feature", "properties": {"norad_id": 34091, "name": "IRIDIUM 33 DEB", "group": "iridium-33-debris", "lat": -69.42154680877759, "lon": 52.804016215886, "alt_km": 608.3708638288826, "timestamp": "2025-12-21T22:41:41.844282+00:00", "meta": {"OBJECT_NAME": "IRIDIUM 33 DEB", "OBJECT_ID": "1997-051DA", "EPOCH": "2025-12-21T05:11:15.309888", "MEAN_MOTION": 14.82383169, "ECCENTRICITY": 0.0034138, "INCLINATION": 86.3414, "RA_OF_ASC_NODE": 62.9508, "ARG_OF_PERICENTER": 262.7173, "MEAN_ANOMALY": 97.0169, "EPHEMERIS_TYPE": 0, "CLASSIFICATION_TYPE": "U", "NORAD_CAT_ID": 34091, "ELEMENT_SET_NO": 999, "REV_AT_EPOCH": 87992, "BSTAR": 0.0035697, "MEAN_MOTION_DOT": 0.00028976, "MEAN_MOTION_DDOT": 0}, "tle": {"line1": "1 34091U 97051DA  25355.21614942  .00028976  00000+0  35697-2 0  9991", "line2": "2 34091  86.3414  62.9508 0034138 262.7173  97.0169 14.82383169879924"}}, "geometry": {"type": "Point", "coordinates": [52.804016215886, -69.42154680877759]}}, {"type": "Feature", "properties": {"norad_id": 34097, "name": "IRIDIUM 33 DEB", "group": "iridium-33-debris", "lat": 52.42602394009268, "lon": 2.299735961217943, "alt_km": 760.7500121149633, "timestamp": "2025-12-21T22:41:41.844306+00:00", "meta": {"OBJECT_NAME": "IRIDIUM 33 DEB", "OBJECT_ID": "1997-051DG", "EPOCH": "2025-12-21T12:24:38.765376", "MEAN_MOTION": 14.3484137, "ECCENTRICITY": 0.00817144, "INCLINATION": 86.1998, "RA_OF_ASC_NODE": 357.5329, "ARG_OF_PERICENTER": 333.4635, "MEAN_ANOMALY": 26.2387, "EPHEMERIS_TYPE": 0, "CLASSIFICATION_TYPE": "U", "NORAD_CAT_ID": 34097, "ELEMENT_SET_NO": 999, "REV_AT_EPOCH": 87245, "BSTAR": 0.0011354179, "MEAN_MOTION_DOT": 3.364e-05, "MEAN_MOTION_DDOT": 0}, "tle": {"line1": "1 34097U 97051DG  25355.51711534  .00003364  00000+0  11354-2 0  9993", "line2": "2 34097  86.1998 357.5329 0081714 333.4635  26.2387 14.34841370872457"}}, "geometry": {"type": "Point", "coordinates": [2.299735961217943, 52.42602394009268]}}, {"type": "Feature", "properties": {"norad_id": 34145, "name": "IRIDIUM 33 DEB", "group": "iridium-33-debris", "lat": -29.8456199682805, "lon": 150.60457292551627, "alt_km": 789.3494734047636, "timestamp": "2025-12-21T22:41:41.844319+00:00", "meta": {"OBJECT_NAME": "IRIDIUM 33 DEB", "OBJECT_ID": "1997-051DY", "EPOCH": "2025-12-21T08:24:33.903360", "MEAN_MOTION": 14.42344558, "ECCENTRICITY": 0.00556988, "INCLINATION": 86.2119, "RA_OF_ASC_NODE": 328.691, "ARG_OF_PERICENTER": 66.4729, "MEAN_ANOMALY": 294.2309, "EPHEMERIS_TYPE": 0, "CLASSIFICATION_TYPE": "U", "NORAD_CAT_ID": 34145, "ELEMENT_SET_NO": 999, "REV_AT_EPOCH": 87762, "BSTAR": 0.00088327299, "MEAN_MOTION_DOT": 2.992e-05, "MEAN_MOTION_DDOT": 0}, "tle": {"line1": "1 34145U 97051DY  25355.35039240  .00002992  00000+0  88327-3 0  9997", "line2": "2 34145  86.2119 328.6910 0055698  66.4729 294.2309 14.42344558877621"}}, "geometry": {"type": "Point", "coordinates": [150.60457292551627, -29.8456199682805]}}, {"type": "Feature", "properties": {"norad_id": 34146, "name": "IRIDIUM 33 DEB", "group": "iridium-33-debris", "lat": 70.08722544718945, "lon": -3.9298410989460604, "alt_km": 731.0188076851164, "timestamp": "2025-12-21T22:41:41.844330+00:00", "meta": {"OBJECT_NAME": "IRIDIUM 33 DEB", "OBJECT_ID": "1997-051DZ", "EPOCH": "2025-12-21T11:20:47.029056", "MEAN_MOTION": 14.49100968, "ECCENTRICITY": 0.00263815, "INCLINATION": 86.2834, "RA_OF_ASC_NODE": 345.942, "ARG_OF_PERICENTER": 191.3369, "MEAN_ANOMALY": 294.1823, "EPHEMERIS_TYPE": 0, "CLASSIFICATION_TYPE": "U", "NORAD_CAT_ID": 34146, "ELEMENT_SET_NO": 999, "REV_AT_EPOCH": 88233, "BSTAR": 0.00067306657, "MEAN_MOTION_DOT": 2.588e-05, "MEAN_MOTION_DDOT": 0}, "tle": {"line1": "1 34146U 97051DZ  25355.47276654  .00002588  00000+0  67307-3 0  9999", "line2": "2 34146  86.2834 345.9420 0026381 191.3369 294.1823 14.49100968882335"}}, "geometry": {"type": "Point", "coordinates": [-3.9298410989460604, 70.08722544718945]}}, {"type": "Feature", "properties": {"norad_id": 34159, "name": "IRIDIUM 33 DEB", "group": "iridium-33-debris", "lat": 24.508022106263407, "lon": -137.35167061013098, "alt_km": 766.0586934435441, "timestamp": "2025-12-21T22:41:41.844340+00:00", "meta": {"OBJECT_NAME": "IRIDIUM 33 DEB", "OBJECT_ID": "1997-051EN", "EPOCH": "2025-12-21T10:17:10.762656", "MEAN_MOTION": 14.3851321, "ECCENTRICITY": 0.00260789, "INCLINATION": 86.3499, "RA_OF_ASC_NODE": 44.5364, "ARG_OF_PERICENTER": 257.1437, "MEAN_ANOMALY": 102.6848, "EPHEMERIS_TYPE": 0, "CLASSIFICATION_TYPE": "U", "NORAD_CAT_ID": 34159, "ELEMENT_SET_NO": 999, "REV_AT_EPOCH": 88084, "BSTAR": 0.00030289356, "MEAN_MOTION_DOT": 9.48e-06, "MEAN_MOTION_DDOT": 0}, "tle": {"line1": "1 34159U 97051EN  25355.42859679  .00000948  00000+0  30289-3 0  9999", "line2": "2 34159  86.3499  44.5364 0026078 257.1437 102.6848 14.38513210880846"}}, "geometry": {"type": "Point", "coordinates": [-137.35167061013098, 24.508022106263407]}}, {"type": "Feature", "properties": {"norad_id": 34350, "name": "IRIDIUM 33 DEB", "group": "iridium-33-debris", "lat": 52.06449303960357, "lon": 3.5390354236566384, "alt_km": 726.2535096447609, "timestamp": "2025-12-21T22:41:41.844350+00:00", "meta": {"OBJECT_NAME": "IRIDIUM 33 DEB", "OBJECT_ID": "1997-051ES", "EPOCH": "2025-12-21T13:03:35.322048", "MEAN_MOTION": 14.45405822, "ECCENTRICITY": 0.00233994, "INCLINATION": 86.3272, "RA_OF_ASC_NODE": 358.9864, "ARG_OF_PERICENTER": 108.1972, "MEAN_ANOMALY": 16.6332, "EPHEMERIS_TYPE": 0, "CLASSIFICATION_TYPE": "U", "NORAD_CAT_ID": 34350, "ELEMENT_SET_NO": 999, "REV_AT_EPOCH": 88420, "BSTAR": 0.00025936017, "MEAN_MOTION_DOT": 9.35e-06, "MEAN_MOTION_DDOT": 0}, "tle": {"line1": "1 34350U 97051ES  25355.54415882  .00000935  00000+0  25936-3 0  9998", "line2": "2 34350  86.3272 358.9864 0023399 108.1972  16.6332 14.45405822884200"}}, "geometry": {"type": "Point", "coordinates": [3.5390354236566384, 52.06449303960357]}}, {"type": "Feature", "properties": {"norad_id": 34366, "name": "IRIDIUM 33 DEB", "group": "iridium-33-debris", "lat": -51.76910715517878, "lon": 40.68622070978716, "alt_km": 734.8284766166898, "timestamp": "2025-12-21T22:41:41.844362+00:00", "meta": {"OBJECT_NAME": "IRIDIUM 33 DEB", "OBJECT_ID": "1997-051FJ", "EPOCH": "2025-12-21T03:14:39.196032", "MEAN_MOTION": 14.54116771, "ECCENTRICITY": 0.00229982, "INCLINATION": 86.369, "RA_OF_ASC_NODE": 45.662, "ARG_OF_PERICENTER": 113.5249, "MEAN_ANOMALY": 274.8967, "EPHEMERIS_TYPE": 0, "CLASSIFICATION_TYPE": "U", "NORAD_CAT_ID": 34366, "ELEMENT_SET_NO": 999, "REV_AT_EPOCH": 88304, "BSTAR": 0.00059167018, "MEAN_MOTION_DOT": 2.529e-05, "MEAN_MOTION_DDOT": 0}, "tle": {"line1": "1 34366U 97051FJ  25355.13517588  .00002529  00000+0  59167-3 0  9990", "line2": "2 34366  86.3690  45.6620 0022998 113.5249 274.8967 14.54116771883047"}}, "geometry": {"type": "Point", "coordinates": [40.68622070978716, -51.76910715517878]}}]}